{"type": "FeatureCollection", "features": [ {"type": "Feature", "properties": {"norad_id": 43207, "name": "BEIDOU-3 M4 (C22)", "group": "beidou", "lat": 50.46966444004213, "lon": 122.79753556534122, "alt_km": 21515.2130541825, "timestamp": "2025-12-07T14:37:05.470061+00:00", "meta": {"OBJECT_NAME": "BEIDOU-3 M4 (C22)", "OBJECT_ID": "2018-018A", "EPOCH": "2025-12-02T03:19:43.852800", "MEAN_MOTION": 1.86230706, "ECCENTRICITY": 0.00040749, "INCLINATION": 56.4768, "RA_OF_ASC_NODE": 69.6557, "ARG_OF_PERICENTER": 15.1369, "MEAN_ANOMALY": 344.8773, "EPHEMERIS_TYPE": 0, "CLASSIFICATION_TYPE": "U", "NORAD_CAT_ID": 43207, "ELEMENT_SET_NO": 999, "REV_AT_EPOCH": 5307, "BSTAR": 0, "MEAN_MOTION_DOT": -4.5e-07, "MEAN_MOTION_DDOT": 0}, "tle": {"line1": "1 43207U 18018A   25336.13870200 -.00000045  00000+0  00000+0 0  9992", "line2": "2 43207  56.4768  69.6557 0004074  15.1369 344.8773  1.86230706 53076"}}, "geometry": {"type": "Point", "coordinates": [122.79753556534122, 50.46966444004213]}}, {"type": "Feature", "properties": {"norad_id": 43208, "name": "BEIDOU-3 M3 (C21)", "group": "beidou", "lat": 19.020331874906848, "lon": 82.67496605406062, "alt_km": 21518.539970674898, "timestamp": "2025-12-07T14:37:05.470073+00:00", "meta": {"OBJECT_NAME": "BEIDOU-3 M3 (C21)", "OBJECT_ID": "2018-018B", "EPOCH": "2025-12-03T06:41:57.693408", "MEAN_MOTION": 1.86230862, "ECCENTRICITY": 0.0006282, "INCLINATION": 56.4772, "RA_OF_ASC_NODE": 69.6218, "ARG_OF_PERICENTER": 317.5873, "MEAN_ANOMALY": 42.3668, "EPHEMERIS_TYPE": 0, "CLASSIFICATION_TYPE": "U", "NORAD_CAT_ID": 43208, "ELEMENT_SET_NO": 999, "REV_AT_EPOCH": 5309, "BSTAR": 0, "MEAN_MOTION_DOT": -4.9e-07, "MEAN_MOTION_DDOT": 0}, "tle": {"line1": "1 43208U 18018B   25337.27913997 -.00000049  00000+0  00000+0 0  9994", "line2": "2 43208  56.4772  69.6218 0006282 317.5873  42.3668  1.86230862 53096"}}, "geometry": {"type": "Point", "coordinates": [82.67496605406062, 19.020331874906848]}}, {"type": "Feature", "properties": {"norad_id": 43245, "name": "BEIDOU-3 M9 (C29)", "group": "beidou", "lat": -43.63643970378905, "lon": 169.7294896918917, "alt_km": 21529.77572590604, "timestamp": "2025-12-07T14:37:05.470084+00:00", "meta": {"OBJECT_NAME": "BEIDOU-3 M9 (C29)", "OBJECT_ID": "2018-029A", "EPOCH": "2025-12-06T04:19:14.773440", "MEAN_MOTION": 1.86227852, "ECCENTRICITY": 0.00016531, "INCLINATION": 54.3717, "RA_OF_ASC_NODE": 306.6963, "ARG_OF_PERICENTER": 276.0283, "MEAN_ANOMALY": 83.9359, "EPHEMERIS_TYPE": 0, "CLASSIFICATION_TYPE": "U", "NORAD_CAT_ID": 43245, "ELEMENT_SET_NO": 999, "REV_AT_EPOCH": 5230, "BSTAR": 0, "MEAN_MOTION_DOT": -6.9e-07, "MEAN_MOTION_DDOT": 0}, "tle": {"line1": "1 43245U 18029A   25340.18003210 -.00000069  00000+0  00000+0 0  9991", "line2": "2 43245  54.3717 306.6963 0001653 276.0283  83.9359  1.86227852 52301"}}, "geometry": {"type": "Point", "coordinates": [169.7294896918917, -43.63643970378905]}}, {"type": "Feature", "properties": {"norad_id": 43246, "name": "BEIDOU-3 M10 (C30)", "group": "beidou", "lat": -52.804737147493334, "lon": -124.15495666208122, "alt_km": 21531.786980945606, "timestamp": "2025-12-07T14:37:05.470095+00:00", "meta": {"OBJECT_NAME": "BEIDOU-3 M10 (C30)", "OBJECT_ID": "2018-029B", "EPOCH": "2025-12-06T15:39:16.557408", "MEAN_MOTION": 1.86228888, "ECCENTRICITY": 0.00040513, "INCLINATION": 54.3688, "RA_OF_ASC_NODE": 306.7073, "ARG_OF_PERICENTER": 0.3852, "MEAN_ANOMALY": 359.5988, "EPHEMERIS_TYPE": 0, "CLASSIFICATION_TYPE": "U", "NORAD_CAT_ID": 43246, "ELEMENT_SET_NO": 999, "REV_AT_EPOCH": 5229, "BSTAR": 0, "MEAN_MOTION_DOT": -6.9e-07, "MEAN_MOTION_DDOT": 0}, "tle": {"line1": "1 43246U 18029B   25340.65227497 -.00000069  00000+0  00000+0 0  9999", "line2": "2 43246  54.3688 306.7073 0004051   0.3852 359.5988  1.86228888 52295"}}, "geometry": {"type": "Point", "coordinates": [-124.15495666208122, -52.804737147493334]}}, {"type": "Feature", "properties": {"norad_id": 43539, "name": "BEIDOU-2 IGSO-7 (C16)", "group": "beidou", "lat": -46.70362321235623, "lon": 32.44161096885459, "alt_km": 35408.61311435002, "timestamp": "2025-12-07T14:37:05.470107+00:00", "meta": {"OBJECT_NAME": "BEIDOU-2 IGSO-7 (C16)", "OBJECT_ID": "2018-057A", "EPOCH": "2025-12-06T10:45:43.762752", "MEAN_MOTION": 1.00258736, "ECCENTRICITY": 0.00924876, "INCLINATION": 55.1738, "RA_OF_ASC_NODE": 164.7265, "ARG_OF_PERICENTER": 235.2008, "MEAN_ANOMALY": 308.2533, "EPHEMERIS_TYPE": 0, "CLASSIFICATION_TYPE": "U", "NORAD_CAT_ID": 43539, "ELEMENT_SET_NO": 999, "REV_AT_EPOCH": 2719, "BSTAR": 0, "MEAN_MOTION_DOT": -5.8e-07, "MEAN_MOTION_DDOT": 0}, "tle": {"line1": "1 43539U 18057A   25340.44842318 -.00000058  00000+0  00000+0 0  9995", "line2": "2 43539  55.1738 164.7265 0092487 235.2008 308.2533  1.00258736 27191"}}, "geometry": {"type": "Point", "coordinates": [32.44161096885459, -46.70362321235623]}}, {"type": "Feature", "properties": {"norad_id": 43581, "name": "BEIDOU-3 M5 (C23)", "group": "beidou", "lat": 37.74632777199063, "lon": -25.3113337330156, "alt_km": 21528.071647727873, "timestamp": "2025-12-07T14:37:05.470119+00:00", "meta": {"OBJECT_NAME": "BEIDOU-3 M5 (C23)", "OBJECT_ID": "2018-062A", "EPOCH": "2025-12-05T19:16:28.653888", "MEAN_MOTION": 1.862286, "ECCENTRICITY": 0.00021216, "INCLINATION": 54.0891, "RA_OF_ASC_NODE": 188.8794, "ARG_OF_PERICENTER": 352.6439, "MEAN_ANOMALY": 7.436, "EPHEMERIS_TYPE": 0, "CLASSIFICATION_TYPE": "U", "NORAD_CAT_ID": 43581, "ELEMENT_SET_NO": 999, "REV_AT_EPOCH": 5003, "BSTAR": 0, "MEAN_MOTION_DOT": 8.2e-07, "MEAN_MOTION_DDOT": 0}, "tle": {"line1": "1 43581U 18062A   25339.80310942  .00000082  00000+0  00000+0 0  9995", "line2": "2 43581  54.0891 188.8794 0002121 352.6439   7.4360  1.86228600 50034"}}, "geometry": {"type": "Point", "coordinates": [-25.3113337330156, 37.74632777199063]}}, {"type": "Feature", "properties": {"norad_id": 43582, "name": "BEIDOU-3 M6 (C24)", "group": "beidou", "lat": -33.319964702793754, "lon": 37.27320925798666, "alt_km": 21553.811361956297, "timestamp": "2025-12-07T14:37:05.470130+00:00", "meta": {"OBJECT_NAME": "BEIDOU-3 M6 (C24)", "OBJECT_ID": "2018-062B", "EPOCH": "2025-12-04T14:12:56.874816", "MEAN_MOTION": 1.862296, "ECCENTRICITY": 0.00077069, "INCLINATION": 54.0887, "RA_OF_ASC_NODE": 188.9098, "ARG_OF_PERICENTER": 46.0149, "MEAN_ANOMALY": 314.1395, "EPHEMERIS_TYPE": 0, "CLASSIFICATION_TYPE": "U", "NORAD_CAT_ID": 43582, "ELEMENT_SET_NO": 999, "REV_AT_EPOCH": 5001, "BSTAR": 0, "MEAN_MOTION_DOT": 1.02e-06, "MEAN_MOTION_DDOT": 0}, "tle": {"line1": "1 43582U 18062B   25338.59232494  .00000102  00000+0  00000+0 0  9999", "line2": "2 43582  54.0887 188.9098 0007706  46.0149 314.1395  1.86229600 50019"}}, "geometry": {"type": "Point", "coordinates": [37.27320925798666, -33.319964702793754]}}, {"type": "Feature", "properties": {"norad_id": 43602, "name": "BEIDOU-3 M12 (C26)", "group": "beidou", "lat": -53.77319204971389, "lon": 87.96296374041765, "alt_km": 21552.652240196538, "timestamp": "2025-12-07T14:37:05.470141+00:00", "meta": {"OBJECT_NAME": "BEIDOU-3 M12 (C26)", "OBJECT_ID": "2018-067A", "EPOCH": "2025-12-05T01:36:30.437280", "MEAN_MOTION": 1.86227634, "ECCENTRICITY": 0.0009145, "INCLINATION": 54.1831, "RA_OF_ASC_NODE": 187.6237, "ARG_OF_PERICENTER": 40.6372, "MEAN_ANOMALY": 319.5174, "EPHEMERIS_TYPE": 0, "CLASSIFICATION_TYPE": "U", "NORAD_CAT_ID": 43602, "ELEMENT_SET_NO": 999, "REV_AT_EPOCH": 4950, "BSTAR": 0, "MEAN_MOTION_DOT": 9.5e-07, "MEAN_MOTION_DDOT": 0}, "tle": {"line1": "1 43602U 18067A   25339.06701895  .00000095  00000+0  00000+0 0  9997", "line2": "2 43602  54.1831 187.6237 0009145  40.6372 319.5174  1.86227634 49501"}}, "geometry": {"type": "Point", "coordinates": [87.96296374041765, -53.77319204971389]}}, {"type": "Feature", "properties": {"norad_id": 43603, "name": "BEIDOU-3 M11 (C25)", "group": "beidou", "lat": 4.624697802962681, "lon": 4.1585094577557635, "alt_km": 21539.581493374226, "timestamp": "2025-12-07T14:37:05.470154+00:00", "meta": {"OBJECT_NAME": "BEIDOU-3 M11 (C25)", "OBJECT_ID": "2018-067B", "EPOCH": "2025-12-05T17:43:23.000160", "MEAN_MOTION": 1.86227161, "ECCENTRICITY": 0.00055761, "INCLINATION": 54.1804, "RA_OF_ASC_NODE": 187.565, "ARG_OF_PERICENTER": 36.5607, "MEAN_ANOMALY": 323.5589, "EPHEMERIS_TYPE": 0, "CLASSIFICATION_TYPE": "U", "NORAD_CAT_ID": 43603, "ELEMENT_SET_NO": 999, "REV_AT_EPOCH": 4954, "BSTAR": 0, "MEAN_MOTION_DOT": 8.4e-07, "MEAN_MOTION_DDOT": 0}, "tle": {"line1": "1 43603U 18067B   25339.73846065  .00000084  00000+0  00000+0 0  9999", "line2": "2 43603  54.1804 187.5650 0005576  36.5607 323.5589  1.86227161 49543"}}, "geometry": {"type": "Point", "coordinates": [4.1585094577557635, 4.624697802962681]}}, {"type": "Feature", "properties": {"norad_id": 43622, "name": "BEIDOU-3 M13 (C32)", "group": "beidou", "lat": -19.194502413378675, "lon": -97.66674084619035, "alt_km": 21532.27542301821, "timestamp": "2025-12-07T14:37:05.470165+00:00", "meta": {"OBJECT_NAME": "BEIDOU-3 M13 (C32)", "OBJECT_ID": "2018-072A", "EPOCH": "2025-12-03T13:07:53.541408", "MEAN_MOTION": 1.86230692, "ECCENTRICITY": 0.00056735, "INCLINATION": 56.4512, "RA_OF_ASC_NODE": 69.1249, "ARG_OF_PERICENTER": 298.6305, "MEAN_ANOMALY": 61.3164, "EPHEMERIS_TYPE": 0, "CLASSIFICATION_TYPE": "U", "NORAD_CAT_ID": 43622, "ELEMENT_SET_NO": 999, "REV_AT_EPOCH": 4901, "BSTAR": 0, "MEAN_MOTION_DOT": -5e-07, "MEAN_MOTION_DDOT": 0}, "tle": {"line1": "1 43622U 18072A   25337.54714747 -.00000050  00000+0  00000+0 0  9998", "line2": "2 43622  56.4512  69.1249 0005673 298.6305  61.3164  1.86230692 49019"}}, "geometry": {"type": "Point", "coordinates": [-97.66674084619035, -19.194502413378675]}}]}